SL-3 R/B                
1 13403U 82079B   25328.42133750  .00005374  00000+0  22339-3 0  9992
2 13403  81.1462 317.2509 0026080 158.4889 201.7446 15.23294595361662
SL-3 R/B                
1 13819U 83010B   25328.42087543  .00014437  00000+0  32727-3 0  9999
2 13819  81.1028 130.9672 0018013  54.5197 305.7723 15.42779139341694
SL-3 R/B                
1 14208U 83075B   25328.47955117  .00011345  00000+0  32767-3 0  9998
2 14208  97.6104 324.3575 0021033 243.6603 116.2480 15.35616482313994
COSMOS 1536             
1 14699U 84013A   25328.20497377  .00005906  00000+0  25503-3 0  9991
2 14699  82.5465 212.5395 0013484 298.6893  61.2987 15.22228317256563
SL-14 R/B               
1 14820U 84027B   25328.44031719  .00000545  00000+0  59711-4 0  9995
2 14820  82.5414 343.7191 0017042 326.4445  33.5690 14.85845498232000
SL-8 R/B                
1 15483U 85006B   25328.45104067  .00000340  00000+0  12145-3 0  9999
2 15483  74.0451  94.7813 0017927  32.5286  28.6430 14.37704529138904
SL-12 R/B(2)            
1 15772U 85042D   25328.40307144  .00000068  00000+0  52247-4 0  9991
2 15772  71.1077 310.1587 0037581 288.3966 224.0140 14.21943100 99420
SL-14 R/B               
1 15945U 85069B   25328.45703877  .00000682  00000+0  74568-4 0  9992
2 15945  82.5249 123.8908 0018879 176.5278 183.6073 14.86291365157204
SL-16 R/B               
1 16182U 85097B   25328.49875836  .00000135  00000+0  91847-4 0  9998
2 16182  71.0040   2.0069 0005695  42.8118  59.9037 14.16581920 72333
SL-14 R/B               
1 16496U 86006B   25328.19043396  .00000772  00000+0  80014-4 0  9993
2 16496  82.5275 359.0058 0075198 262.2638  97.0035 14.86634216133536
COSMOS 1743             
1 16719U 86034A   25328.07914975  .00027720  00000+0  47775-3 0  9997
2 16719  82.5353 183.9531 0005706 336.3322  23.7666 15.50885271163846
