CCSDS_OMM_VERS = 2.0
CREATION_DATE  = 
ORIGINATOR     = 

OBJECT_NAME    = SL-3 R/B
OBJECT_ID      = 1982-079B
CENTER_NAME    = EARTH
REF_FRAME      = TEME
TIME_SYSTEM    = UTC
MEAN_ELEMENT_THEORY = SGP/SGP4

EPOCH          = 2025-11-24T10:06:43.560000
MEAN_MOTION    = 15.23294595
ECCENTRICITY   = .002608
INCLINATION    = 81.1462
RA_OF_ASC_NODE = 317.2509
ARG_OF_PERICENTER = 158.4889
MEAN_ANOMALY   = 201.7446

EPHEMERIS_TYPE = 0
CLASSIFICATION_TYPE = U
NORAD_CAT_ID   = 13403
ELEMENT_SET_NO = 999
REV_AT_EPOCH   = 36166
BSTAR          = .22339E-3
MEAN_MOTION_DOT = .5374E-4
MEAN_MOTION_DDOT = 0

CCSDS_OMM_VERS = 2.0
CREATION_DATE  = 
ORIGINATOR     = 

OBJECT_NAME    = SL-3 R/B
OBJECT_ID      = 1983-010B
CENTER_NAME    = EARTH
REF_FRAME      = TEME
TIME_SYSTEM    = UTC
MEAN_ELEMENT_THEORY = SGP/SGP4

EPOCH          = 2025-11-24T10:06:03.637152
MEAN_MOTION    = 15.42779139
ECCENTRICITY   = .0018013
INCLINATION    = 81.1028
RA_OF_ASC_NODE = 130.9672
ARG_OF_PERICENTER = 54.5197
MEAN_ANOMALY   = 305.7723

EPHEMERIS_TYPE = 0
CLASSIFICATION_TYPE = U
NORAD_CAT_ID   = 13819
ELEMENT_SET_NO = 999
REV_AT_EPOCH   = 34169
BSTAR          = .32727E-3
MEAN_MOTION_DOT = .14437E-3
MEAN_MOTION_DDOT = 0

CCSDS_OMM_VERS = 2.0
CREATION_DATE  = 
ORIGINATOR     = 

OBJECT_NAME    = SL-3 R/B
OBJECT_ID      = 1983-075B
CENTER_NAME    = EARTH
REF_FRAME      = TEME
TIME_SYSTEM    = UTC
MEAN_ELEMENT_THEORY = SGP/SGP4

EPOCH          = 2025-11-24T11:30:33.221088
MEAN_MOTION    = 15.35616482
ECCENTRICITY   = .0021033
INCLINATION    = 97.6104
RA_OF_ASC_NODE = 324.3575
ARG_OF_PERICENTER = 243.6603
MEAN_ANOMALY   = 116.2480

EPHEMERIS_TYPE = 0
CLASSIFICATION_TYPE = U
NORAD_CAT_ID   = 14208
ELEMENT_SET_NO = 999
REV_AT_EPOCH   = 31399
BSTAR          = .32767E-3
MEAN_MOTION_DOT = .11345E-3
MEAN_MOTION_DDOT = 0

CCSDS_OMM_VERS = 2.0
CREATION_DATE  = 
ORIGINATOR     = 

OBJECT_NAME    = COSMOS 1536
OBJECT_ID      = 1984-013A
CENTER_NAME    = EARTH
REF_FRAME      = TEME
TIME_SYSTEM    = UTC
MEAN_ELEMENT_THEORY = SGP/SGP4

EPOCH          = 2025-11-24T04:55:09.733728
MEAN_MOTION    = 15.22228317
ECCENTRICITY   = .0013484
INCLINATION    = 82.5465
RA_OF_ASC_NODE = 212.5395
ARG_OF_PERICENTER = 298.6893
MEAN_ANOMALY   = 61.2987

EPHEMERIS_TYPE = 0
CLASSIFICATION_TYPE = U
NORAD_CAT_ID   = 14699
ELEMENT_SET_NO = 999
REV_AT_EPOCH   = 25656
BSTAR          = .25503E-3
MEAN_MOTION_DOT = .5906E-4
MEAN_MOTION_DDOT = 0

CCSDS_OMM_VERS = 2.0
CREATION_DATE  = 
ORIGINATOR     = 

OBJECT_NAME    = SL-14 R/B
OBJECT_ID      = 1984-027B
CENTER_NAME    = EARTH
REF_FRAME      = TEME
TIME_SYSTEM    = UTC
MEAN_ELEMENT_THEORY = SGP/SGP4

EPOCH          = 2025-11-24T10:34:03.405216
MEAN_MOTION    = 14.85845498
ECCENTRICITY   = .0017042
INCLINATION    = 82.5414
RA_OF_ASC_NODE = 343.7191
ARG_OF_PERICENTER = 326.4445
MEAN_ANOMALY   = 33.5690

EPHEMERIS_TYPE = 0
CLASSIFICATION_TYPE = U
NORAD_CAT_ID   = 14820
ELEMENT_SET_NO = 999
REV_AT_EPOCH   = 23200
BSTAR          = .59711E-4
MEAN_MOTION_DOT = .545E-5
MEAN_MOTION_DDOT = 0

CCSDS_OMM_VERS = 2.0
CREATION_DATE  = 
ORIGINATOR     = 

OBJECT_NAME    = SL-8 R/B
OBJECT_ID      = 1985-006B
CENTER_NAME    = EARTH
REF_FRAME      = TEME
TIME_SYSTEM    = UTC
MEAN_ELEMENT_THEORY = SGP/SGP4

EPOCH          = 2025-11-24T10:49:29.913888
MEAN_MOTION    = 14.37704529
ECCENTRICITY   = .0017927
INCLINATION    = 74.0451
RA_OF_ASC_NODE = 94.7813
ARG_OF_PERICENTER = 32.5286
MEAN_ANOMALY   = 28.6430

EPHEMERIS_TYPE = 0
CLASSIFICATION_TYPE = U
NORAD_CAT_ID   = 15483
ELEMENT_SET_NO = 999
REV_AT_EPOCH   = 13890
BSTAR          = .12145E-3
MEAN_MOTION_DOT = .34E-5
MEAN_MOTION_DDOT = 0

CCSDS_OMM_VERS = 2.0
CREATION_DATE  = 
ORIGINATOR     = 

OBJECT_NAME    = SL-12 R/B(2)
OBJECT_ID      = 1985-042D
CENTER_NAME    = EARTH
REF_FRAME      = TEME
TIME_SYSTEM    = UTC
MEAN_ELEMENT_THEORY = SGP/SGP4

EPOCH          = 2025-11-24T09:40:25.372416
MEAN_MOTION    = 14.21943100
ECCENTRICITY   = .0037581
INCLINATION    = 71.1077
RA_OF_ASC_NODE = 310.1587
ARG_OF_PERICENTER = 288.3966
MEAN_ANOMALY   = 224.0140

EPHEMERIS_TYPE = 0
CLASSIFICATION_TYPE = U
NORAD_CAT_ID   = 15772
ELEMENT_SET_NO = 999
REV_AT_EPOCH   = 9942
BSTAR          = .52247E-4
MEAN_MOTION_DOT = .68E-6
MEAN_MOTION_DDOT = 0

CCSDS_OMM_VERS = 2.0
CREATION_DATE  = 
ORIGINATOR     = 

OBJECT_NAME    = SL-14 R/B
OBJECT_ID      = 1985-069B
CENTER_NAME    = EARTH
REF_FRAME      = TEME
TIME_SYSTEM    = UTC
MEAN_ELEMENT_THEORY = SGP/SGP4

EPOCH          = 2025-11-24T10:58:08.149728
MEAN_MOTION    = 14.86291365
ECCENTRICITY   = .0018879
INCLINATION    = 82.5249
RA_OF_ASC_NODE = 123.8908
ARG_OF_PERICENTER = 176.5278
MEAN_ANOMALY   = 183.6073

EPHEMERIS_TYPE = 0
CLASSIFICATION_TYPE = U
NORAD_CAT_ID   = 15945
ELEMENT_SET_NO = 999
REV_AT_EPOCH   = 15720
BSTAR          = .74568E-4
MEAN_MOTION_DOT = .682E-5
MEAN_MOTION_DDOT = 0

CCSDS_OMM_VERS = 2.0
CREATION_DATE  = 
ORIGINATOR     = 

OBJECT_NAME    = SL-16 R/B
OBJECT_ID      = 1985-097B
CENTER_NAME    = EARTH
REF_FRAME      = TEME
TIME_SYSTEM    = UTC
MEAN_ELEMENT_THEORY = SGP/SGP4

EPOCH          = 2025-11-24T11:58:12.722304
MEAN_MOTION    = 14.16581920
ECCENTRICITY   = .0005695
INCLINATION    = 71.0040
RA_OF_ASC_NODE = 2.0069
ARG_OF_PERICENTER = 42.8118
MEAN_ANOMALY   = 59.9037

EPHEMERIS_TYPE = 0
CLASSIFICATION_TYPE = U
NORAD_CAT_ID   = 16182
ELEMENT_SET_NO = 999
REV_AT_EPOCH   = 7233
BSTAR          = .91847E-4
MEAN_MOTION_DOT = .135E-5
MEAN_MOTION_DDOT = 0

CCSDS_OMM_VERS = 2.0
CREATION_DATE  = 
ORIGINATOR     = 

OBJECT_NAME    = SL-14 R/B
OBJECT_ID      = 1986-006B
CENTER_NAME    = EARTH
REF_FRAME      = TEME
TIME_SYSTEM    = UTC
MEAN_ELEMENT_THEORY = SGP/SGP4

EPOCH          = 2025-11-24T04:34:13.494144
MEAN_MOTION    = 14.86634216
ECCENTRICITY   = .0075199
INCLINATION    = 82.5275
RA_OF_ASC_NODE = 359.0058
ARG_OF_PERICENTER = 262.2638
MEAN_ANOMALY   = 97.0035

EPHEMERIS_TYPE = 0
CLASSIFICATION_TYPE = U
NORAD_CAT_ID   = 16496
ELEMENT_SET_NO = 999
REV_AT_EPOCH   = 13353
BSTAR          = .80014E-4
MEAN_MOTION_DOT = .772E-5
MEAN_MOTION_DDOT = 0

CCSDS_OMM_VERS = 2.0
CREATION_DATE  = 
ORIGINATOR     = 

OBJECT_NAME    = COSMOS 1743
OBJECT_ID      = 1986-034A
CENTER_NAME    = EARTH
REF_FRAME      = TEME
TIME_SYSTEM    = UTC
MEAN_ELEMENT_THEORY = SGP/SGP4

EPOCH          = 2025-11-24T01:53:58.538400
MEAN_MOTION    = 15.50885271
ECCENTRICITY   = .0005706
INCLINATION    = 82.5353
RA_OF_ASC_NODE = 183.9531
ARG_OF_PERICENTER = 336.3322
MEAN_ANOMALY   = 23.7666

EPHEMERIS_TYPE = 0
CLASSIFICATION_TYPE = U
NORAD_CAT_ID   = 16719
ELEMENT_SET_NO = 999
REV_AT_EPOCH   = 16384
BSTAR          = .47775E-3
MEAN_MOTION_DOT = .2772E-3
MEAN_MOTION_DDOT = 0

